{
  "type": "FeatureCollection",
  "features": [
    {
      "type": "Feature",
      "properties": {
        "norad_id": 34570,
        "name": "COSMOS 2251 DEB",
        "group": "cosmos-2251-debris",
        "lat": -48.754636916007534,
        "lon": 68.89913620797239,
        "alt_km": 963.1992934973305,
        "timestamp": "2025-12-06T03:35:02.280661+00:00",
        "meta_object_name": "COSMOS 2251 DEB",
        "meta_object_id": "1993-036VG",
        "meta_epoch": "2025-12-05T03:05:31.629984",
        "meta_mean_motion": 13.99801513,
        "meta_eccentricity": 0.01903032,
        "meta_inclination": 73.958,
        "meta_ra_of_asc_node": 231.5177,
        "meta_arg_of_pericenter": 115.6994,
        "meta_mean_anomaly": 13.1865,
        "meta_ephemeris_type": 0,
        "meta_classification_type": "U",
        "meta_norad_cat_id": 34570,
        "meta_element_set_no": 999,
        "meta_rev_at_epoch": 85494,
        "meta_bstar": 0.00081468933,
        "meta_mean_motion_dot": 1.373e-05,
        "meta_mean_motion_ddot": 0,
        "tle_line1": "1 34570U 93036VG  25339.12883831  .00001373  00000+0  81469-3 0  9990",
        "tle_line2": "2 34570  73.9580 231.5177 0190303 115.6994  13.1865 13.99801513854944"
      },
      "geometry": {
        "type": "Point",
        "coordinates": [
          68.89913620797239,
          -48.754636916007534
        ]
      }
    },
    {
      "type": "Feature",
      "properties": {
        "norad_id": 34571,
        "name": "COSMOS 2251 DEB",
        "group": "cosmos-2251-debris",
        "lat": 0.677758590620377,
        "lon": -165.02397111127698,
        "alt_km": 762.6260770362096,
        "timestamp": "2025-12-06T03:35:02.280671+00:00",
        "meta_object_name": "COSMOS 2251 DEB",
        "meta_object_id": "1993-036VH",
        "meta_epoch": "2025-12-03T00:59:43.530720",
        "meta_mean_motion": 14.48571332,
        "meta_eccentricity": 0.00666537,
        "meta_inclination": 74.0399,
        "meta_ra_of_asc_node": 200.6016,
        "meta_arg_of_pericenter": 237.8665,
        "meta_mean_anomaly": 121.6017,
        "meta_ephemeris_type": 0,
        "meta_classification_type": "U",
        "meta_norad_cat_id": 34571,
        "meta_element_set_no": 999,
        "meta_rev_at_epoch": 87153,
        "meta_bstar": 0.002487781,
        "meta_mean_motion_dot": 9.601e-05,
        "meta_mean_motion_ddot": 0,
        "tle_line1": "1 34571U 93036VH  25337.04147605  .00009601  00000+0  24878-2 0  9994",
        "tle_line2": "2 34571  74.0399 200.6016 0066653 237.8665 121.6017 14.48571332871532"
      },
      "geometry": {
        "type": "Point",
        "coordinates": [
          -165.02397111127698,
          0.677758590620377
        ]
      }
    },
    {
      "type": "Feature",
      "properties": {
        "norad_id": 34572,
        "name": "COSMOS 2251 DEB",
        "group": "cosmos-2251-debris",
        "lat": -14.268752165132591,
        "lon": -47.91543821054871,
        "alt_km": 685.7014665997649,
        "timestamp": "2025-12-06T03:35:02.280682+00:00",
        "meta_object_name": "COSMOS 2251 DEB",
        "meta_object_id": "1993-036VJ",
        "meta_epoch": "2025-12-03T10:14:07.080576",
        "meta_mean_motion": 14.49672328,
        "meta_eccentricity": 0.00639869,
        "meta_inclination": 74.0096,
        "meta_ra_of_asc_node": 133.0197,
        "meta_arg_of_pericenter": 208.2005,
        "meta_mean_anomaly": 181.8869,
        "meta_ephemeris_type": 0,
        "meta_classification_type": "U",
        "meta_norad_cat_id": 34572,
        "meta_element_set_no": 999,
        "meta_rev_at_epoch": 87243,
        "meta_bstar": 0.0038394199,
        "meta_mean_motion_dot": 0.00015164,
        "meta_mean_motion_ddot": 0,
        "tle_line1": "1 34572U 93036VJ  25337.42647084  .00015164  00000+0  38394-2 0  9992",
        "tle_line2": "2 34572  74.0096 133.0197 0063986 208.2005 181.8869 14.49672328872433"
      },
      "geometry": {
        "type": "Point",
        "coordinates": [
          -47.91543821054871,
          -14.268752165132591
        ]
      }
    },
    {
      "type": "Feature",
      "properties": {
        "norad_id": 34574,
        "name": "COSMOS 2251 DEB",
        "group": "cosmos-2251-debris",
        "lat": -45.312501119687944,
        "lon": 39.11622707766776,
        "alt_km": 693.8986342756234,
        "timestamp": "2025-12-06T03:35:02.280693+00:00",
        "meta_object_name": "COSMOS 2251 DEB",
        "meta_object_id": "1993-036VL",
        "meta_epoch": "2025-12-05T05:05:33.914112",
        "meta_mean_motion": 14.70474844,
        "meta_eccentricity": 0.00669895,
        "meta_inclination": 74.0703,
        "meta_ra_of_asc_node": 57.7127,
        "meta_arg_of_pericenter": 81.2459,
        "meta_mean_anomaly": 312.8896,
        "meta_ephemeris_type": 0,
        "meta_classification_type": "U",
        "meta_norad_cat_id": 34574,
        "meta_element_set_no": 999,
        "meta_rev_at_epoch": 88668,
        "meta_bstar": 0.0018703262,
        "meta_mean_motion_dot": 0.00011728,
        "meta_mean_motion_ddot": 0,
        "tle_line1": "1 34574U 93036VL  25339.21219808  .00011728  00000+0  18703-2 0  9996",
        "tle_line2": "2 34574  74.0703  57.7127 0066989  81.2459 312.8896 14.70474844886688"
      },
      "geometry": {
        "type": "Point",
        "coordinates": [
          39.11622707766776,
          -45.312501119687944
        ]
      }
    },
    {
      "type": "Feature",
      "properties": {
        "norad_id": 34576,
        "name": "COSMOS 2251 DEB",
        "group": "cosmos-2251-debris",
        "lat": -70.16272577553842,
        "lon": 98.1531314926739,
        "alt_km": 709.6314715152439,
        "timestamp": "2025-12-06T03:35:02.280704+00:00",
        "meta_object_name": "COSMOS 2251 DEB",
        "meta_object_id": "1993-036VN",
        "meta_epoch": "2025-12-03T11:44:15.751680",
        "meta_mean_motion": 14.55313315,
        "meta_eccentricity": 0.00078434,
        "meta_inclination": 74.0325,
        "meta_ra_of_asc_node": 155.7197,
        "meta_arg_of_pericenter": 289.1778,
        "meta_mean_anomaly": 100.8938,
        "meta_ephemeris_type": 0,
        "meta_classification_type": "U",
        "meta_norad_cat_id": 34576,
        "meta_element_set_no": 999,
        "meta_rev_at_epoch": 88332,
        "meta_bstar": 0.0011687279,
        "meta_mean_motion_dot": 5.044e-05,
        "meta_mean_motion_ddot": 0,
        "tle_line1": "1 34576U 93036VN  25337.48907120  .00005044  00000+0  11687-2 0  9994",
        "tle_line2": "2 34576  74.0325 155.7197 0007843 289.1778 100.8938 14.55313315883321"
      },
      "geometry": {
        "type": "Point",
        "coordinates": [
          98.1531314926739,
          -70.16272577553842
        ]
      }
    },
    {
      "type": "Feature",
      "properties": {
        "norad_id": 34579,
        "name": "COSMOS 2251 DEB",
        "group": "cosmos-2251-debris",
        "lat": 18.775605111218255,
        "lon": -118.26015392388494,
        "alt_km": 735.5240615019711,
        "timestamp": "2025-12-06T03:35:02.280714+00:00",
        "meta_object_name": "COSMOS 2251 DEB",
        "meta_object_id": "1993-036VR",
        "meta_epoch": "2025-12-05T04:57:46.517760",
        "meta_mean_motion": 14.4527312,
        "meta_eccentricity": 0.00275494,
        "meta_inclination": 74.0538,
        "meta_ra_of_asc_node": 237.9159,
        "meta_arg_of_pericenter": 307.7276,
        "meta_mean_anomaly": 209.5758,
        "meta_ephemeris_type": 0,
        "meta_classification_type": "U",
        "meta_norad_cat_id": 34579,
        "meta_element_set_no": 999,
        "meta_rev_at_epoch": 88065,
        "meta_bstar": 0.00092129948,
        "meta_mean_motion_dot": 3.222e-05,
        "meta_mean_motion_ddot": 0,
        "tle_line1": "1 34579U 93036VR  25339.20678840  .00003222  00000+0  92130-3 0  9992",
        "tle_line2": "2 34579  74.0538 237.9159 0027549 307.7276 209.5758 14.45273120880654"
      },
      "geometry": {
        "type": "Point",
        "coordinates": [
          -118.26015392388494,
          18.775605111218255
        ]
      }
    },
    {
      "type": "Feature",
      "properties": {
        "norad_id": 34582,
        "name": "COSMOS 2251 DEB",
        "group": "cosmos-2251-debris",
        "lat": 4.254992840062523,
        "lon": -74.14597667942272,
        "alt_km": 720.9696188847875,
        "timestamp": "2025-12-06T03:35:02.280724+00:00",
        "meta_object_name": "COSMOS 2251 DEB",
        "meta_object_id": "1993-036VU",
        "meta_epoch": "2025-12-05T05:56:14.580672",
        "meta_mean_motion": 14.43262676,
        "meta_eccentricity": 0.00474293,
        "meta_inclination": 74.0202,
        "meta_ra_of_asc_node": 286.3088,
        "meta_arg_of_pericenter": 38.1911,
        "meta_mean_anomaly": 322.259,
        "meta_ephemeris_type": 0,
        "meta_classification_type": "U",
        "meta_norad_cat_id": 34582,
        "meta_element_set_no": 999,
        "meta_rev_at_epoch": 87839,
        "meta_bstar": 0.0015549265,
        "meta_mean_motion_dot": 5.284e-05,
        "meta_mean_motion_ddot": 0,
        "tle_line1": "1 34582U 93036VU  25339.24739098  .00005284  00000+0  15549-2 0  9991",
        "tle_line2": "2 34582  74.0202 286.3088 0047429  38.1911 322.2590 14.43262676878392"
      },
      "geometry": {
        "type": "Point",
        "coordinates": [
          -74.14597667942272,
          4.254992840062523
        ]
      }
    }
  ]
}